[{"OBJECT_NAME":"CINEMA","OBJECT_ID":"2012-048G","EPOCH":"2026-03-09T23:21:38.910528","MEAN_MOTION":15.41758997,"ECCENTRICITY":0.00644529,"INCLINATION":64.645,"RA_OF_ASC_NODE":61.8658,"ARG_OF_PERICENTER":204.5071,"MEAN_ANOMALY":155.2999,"EPHEMERIS_TYPE":0,"CLASSIFICATION_TYPE":"U","NORAD_CAT_ID":38764,"ELEMENT_SET_NO":999,"REV_AT_EPOCH":10191,"BSTAR":0.00076174658,"MEAN_MOTION_DOT":0.0003483,"MEAN_MOTION_DDOT":0},{"OBJECT_NAME":"STARLINK-35705","OBJECT_ID":"2025-294K","EPOCH":"2026-03-09T23:15:18.049824","MEAN_MOTION":15.2759034,"ECCENTRICITY":0.00014908,"INCLINATION":43.0037,"RA_OF_ASC_NODE":36.3444,"ARG_OF_PERICENTER":249.2115,"MEAN_ANOMALY":110.8577,"EPHEMERIS_TYPE":0,"CLASSIFICATION_TYPE":"U","NORAD_CAT_ID":67039,"ELEMENT_SET_NO":999,"REV_AT_EPOCH":1484,"BSTAR":0.0011698108,"MEAN_MOTION_DOT":0.00032079,"MEAN_MOTION_DDOT":0}]
